[{"OBJECT_NAME":"SKYSAT-A","OBJECT_ID":"2013-066C","EPOCH":"2026-03-28T21:19:18.655104","MEAN_MOTION":15.12487425,"ECCENTRICITY":0.00204466,"INCLINATION":97.3915,"RA_OF_ASC_NODE":139.8334,"ARG_OF_PERICENTER":229.1454,"MEAN_ANOMALY":130.8005,"EPHEMERIS_TYPE":0,"CLASSIFICATION_TYPE":"U","NORAD_CAT_ID":39418,"ELEMENT_SET_NO":999,"REV_AT_EPOCH":67634,"BSTAR":0.00023377911,"MEAN_MOTION_DOT":4.024e-5,"MEAN_MOTION_DDOT":0},{"OBJECT_NAME":"SKYSAT-B","OBJECT_ID":"2014-037D","EPOCH":"2026-03-28T19:55:28.178400","MEAN_MOTION":14.87796013,"ECCENTRICITY":0.00056848,"INCLINATION":98.3759,"RA_OF_ASC_NODE":42.267,"ARG_OF_PERICENTER":165.362,"MEAN_ANOMALY":194.776,"EPHEMERIS_TYPE":0,"CLASSIFICATION_TYPE":"U","NORAD_CAT_ID":40072,"ELEMENT_SET_NO":999,"REV_AT_EPOCH":63401,"BSTAR":0.0002037983,"MEAN_MOTION_DOT":1.8e-5,"MEAN_MOTION_DDOT":0},{"OBJECT_NAME":"SKYSAT-C1","OBJECT_ID":"2016-040C","EPOCH":"2026-03-28T16:11:21.444864","MEAN_MOTION":15.34895249,"ECCENTRICITY":0.00015587,"INCLINATION":96.967,"RA_OF_ASC_NODE":123.7981,"ARG_OF_PERICENTER":9.695,"MEAN_ANOMALY":350.4324,"EPHEMERIS_TYPE":0,"CLASSIFICATION_TYPE":"U","NORAD_CAT_ID":41601,"ELEMENT_SET_NO":999,"REV_AT_EPOCH":54551,"BSTAR":0.0003203797,"MEAN_MOTION_DOT":0.00010772,"MEAN_MOTION_DDOT":0},{"OBJECT_NAME":"SKYSAT-C4","OBJECT_ID":"2016-058B","EPOCH":"2026-03-28T19:37:42.003264","MEAN_MOTION":15.46043777,"ECCENTRICITY":0.00025373,"INCLINATION":96.9265,"RA_OF_ASC_NODE":113.0661,"ARG_OF_PERICENTER":129.9437,"MEAN_ANOMALY":230.2037,"EPHEMERIS_TYPE":0,"CLASSIFICATION_TYPE":"U","NORAD_CAT_ID":41771,"ELEMENT_SET_NO":999,"REV_AT_EPOCH":53304,"BSTAR":0.00039988608,"MEAN_MOTION_DOT":0.00019476,"MEAN_MOTION_DDOT":0},{"OBJECT_NAME":"SKYSAT-C5","OBJECT_ID":"2016-058C","EPOCH":"2026-03-28T20:54:48.924576","MEAN_MOTION":15.34066727,"ECCENTRICITY":0.0001402,"INCLINATION":97.0581,"RA_OF_ASC_NODE":132.1018,"ARG_OF_PERICENTER":195.4596,"MEAN_ANOMALY":164.6605,"EPHEMERIS_TYPE":0,"CLASSIFICATION_TYPE":"U","NORAD_CAT_ID":41772,"ELEMENT_SET_NO":999,"REV_AT_EPOCH":53143,"BSTAR":0.00030322196,"MEAN_MOTION_DOT":9.924e-5,"MEAN_MOTION_DDOT":0},{"OBJECT_NAME":"SKYSAT-C2","OBJECT_ID":"2016-058D","EPOCH":"2026-03-28T19:29:40.293888","MEAN_MOTION":15.4020832,"ECCENTRICITY":0.00030663,"INCLINATION":97.0259,"RA_OF_ASC_NODE":113.0069,"ARG_OF_PERICENTER":21.5261,"MEAN_ANOMALY":338.6115,"EPHEMERIS_TYPE":0,"CLASSIFICATION_TYPE":"U","NORAD_CAT_ID":41773,"ELEMENT_SET_NO":999,"REV_AT_EPOCH":53267,"BSTAR":0.00037244915,"MEAN_MOTION_DOT":0.00014896,"MEAN_MOTION_DDOT":0},{"OBJECT_NAME":"SKYSAT-C3","OBJECT_ID":"2016-058E","EPOCH":"2026-03-28T22:35:34.374048","MEAN_MOTION":15.49185943,"ECCENTRICITY":0.00024189,"INCLINATION":96.9144,"RA_OF_ASC_NODE":122.0049,"ARG_OF_PERICENTER":113.9726,"MEAN_ANOMALY":246.178,"EPHEMERIS_TYPE":0,"CLASSIFICATION_TYPE":"U","NORAD_CAT_ID":41774,"ELEMENT_SET_NO":999,"REV_AT_EPOCH":53367,"BSTAR":0.00046311115,"MEAN_MOTION_DOT":0.00025181,"MEAN_MOTION_DDOT":0},{"OBJECT_NAME":"SKYSAT-C11","OBJECT_ID":"2017-068A","EPOCH":"2026-03-28T22:01:18.093792","MEAN_MOTION":15.53627855,"ECCENTRICITY":4.552e-5,"INCLINATION":97.4231,"RA_OF_ASC_NODE":233.5635,"ARG_OF_PERICENTER":153.6454,"MEAN_ANOMALY":206.4822,"EPHEMERIS_TYPE":0,"CLASSIFICATION_TYPE":"U","NORAD_CAT_ID":42987,"ELEMENT_SET_NO":999,"REV_AT_EPOCH":47076,"BSTAR":0.00050099666,"MEAN_MOTION_DOT":0.00031934,"MEAN_MOTION_DDOT":0},{"OBJECT_NAME":"SKYSAT-C10","OBJECT_ID":"2017-068B","EPOCH":"2026-03-28T22:09:46.037664","MEAN_MOTION":15.33127686,"ECCENTRICITY":0.00010325,"INCLINATION":97.4366,"RA_OF_ASC_NODE":224.1362,"ARG_OF_PERICENTER":107.7991,"MEAN_ANOMALY":252.3364,"EPHEMERIS_TYPE":0,"CLASSIFICATION_TYPE":"U","NORAD_CAT_ID":42988,"ELEMENT_SET_NO":999,"REV_AT_EPOCH":47005,"BSTAR":0.00041606206,"MEAN_MOTION_DOT":0.00013245,"MEAN_MOTION_DDOT":0},{"OBJECT_NAME":"SKYSAT-C9","OBJECT_ID":"2017-068C","EPOCH":"2026-03-28T22:57:11.702016","MEAN_MOTION":15.39495883,"ECCENTRICITY":0.000973,"INCLINATION":97.429,"RA_OF_ASC_NODE":224.3716,"ARG_OF_PERICENTER":71.0783,"MEAN_ANOMALY":289.1517,"EPHEMERIS_TYPE":0,"CLASSIFICATION_TYPE":"U","NORAD_CAT_ID":42989,"ELEMENT_SET_NO":999,"REV_AT_EPOCH":47040,"BSTAR":0.00043624805,"MEAN_MOTION_DOT":0.0001708,"MEAN_MOTION_DDOT":0},{"OBJECT_NAME":"SKYSAT-C8","OBJECT_ID":"2017-068D","EPOCH":"2026-03-28T21:09:11.840256","MEAN_MOTION":15.35265023,"ECCENTRICITY":0.00012115,"INCLINATION":97.4383,"RA_OF_ASC_NODE":223.5992,"ARG_OF_PERICENTER":95.4936,"MEAN_ANOMALY":264.6445,"EPHEMERIS_TYPE":0,"CLASSIFICATION_TYPE":"U","NORAD_CAT_ID":42990,"ELEMENT_SET_NO":999,"REV_AT_EPOCH":46998,"BSTAR":0.00041894655,"MEAN_MOTION_DOT":0.00014274,"MEAN_MOTION_DDOT":0},{"OBJECT_NAME":"SKYSAT-C7","OBJECT_ID":"2017-068E","EPOCH":"2026-03-28T20:55:46.914528","MEAN_MOTION":15.35216149,"ECCENTRICITY":0.00066574,"INCLINATION":97.4395,"RA_OF_ASC_NODE":224.5741,"ARG_OF_PERICENTER":45.4542,"MEAN_ANOMALY":314.7244,"EPHEMERIS_TYPE":0,"CLASSIFICATION_TYPE":"U","NORAD_CAT_ID":42991,"ELEMENT_SET_NO":999,"REV_AT_EPOCH":47004,"BSTAR":0.0004167468,"MEAN_MOTION_DOT":0.00014186,"MEAN_MOTION_DDOT":0},{"OBJECT_NAME":"SKYSAT-C6","OBJECT_ID":"2017-068F","EPOCH":"2026-03-28T21:30:59.522400","MEAN_MOTION":15.32944306,"ECCENTRICITY":0.00037623,"INCLINATION":97.443,"RA_OF_ASC_NODE":224.8267,"ARG_OF_PERICENTER":82.1341,"MEAN_ANOMALY":278.0328,"EPHEMERIS_TYPE":0,"CLASSIFICATION_TYPE":"U","NORAD_CAT_ID":42992,"ELEMENT_SET_NO":999,"REV_AT_EPOCH":47001,"BSTAR":0.00040276281,"MEAN_MOTION_DOT":0.00012747,"MEAN_MOTION_DDOT":0},{"OBJECT_NAME":"SKYSAT-C12","OBJECT_ID":"2018-099AR","EPOCH":"2026-03-28T20:28:47.551296","MEAN_MOTION":15.4629333,"ECCENTRICITY":0.00062753,"INCLINATION":96.9355,"RA_OF_ASC_NODE":114.4369,"ARG_OF_PERICENTER":91.5851,"MEAN_ANOMALY":268.6118,"EPHEMERIS_TYPE":0,"CLASSIFICATION_TYPE":"U","NORAD_CAT_ID":43797,"ELEMENT_SET_NO":999,"REV_AT_EPOCH":40943,"BSTAR":0.00040945082,"MEAN_MOTION_DOT":0.00020129,"MEAN_MOTION_DDOT":0},{"OBJECT_NAME":"SKYSAT-C13","OBJECT_ID":"2018-099AW","EPOCH":"2026-03-28T16:23:19.954176","MEAN_MOTION":15.80487986,"ECCENTRICITY":0.0005511,"INCLINATION":96.9362,"RA_OF_ASC_NODE":135.4049,"ARG_OF_PERICENTER":148.1924,"MEAN_ANOMALY":211.9679,"EPHEMERIS_TYPE":0,"CLASSIFICATION_TYPE":"U","NORAD_CAT_ID":43802,"ELEMENT_SET_NO":999,"REV_AT_EPOCH":41016,"BSTAR":0.00063,"MEAN_MOTION_DOT":0.00120491,"MEAN_MOTION_DDOT":0},{"OBJECT_NAME":"FLOCK 4Q-16","OBJECT_ID":"2023-174R","EPOCH":"2026-03-28T19:03:12.909024","MEAN_MOTION":15.45747434,"ECCENTRICITY":0.00079165,"INCLINATION":97.384,"RA_OF_ASC_NODE":174.2536,"ARG_OF_PERICENTER":100.6901,"MEAN_ANOMALY":259.524,"EPHEMERIS_TYPE":0,"CLASSIFICATION_TYPE":"U","NORAD_CAT_ID":58271,"ELEMENT_SET_NO":999,"REV_AT_EPOCH":13314,"BSTAR":0.00056341552,"MEAN_MOTION_DOT":0.00027245,"MEAN_MOTION_DDOT":0}]
